[{"OBJECT_NAME":"UWE-4","OBJECT_ID":"2018-111E","EPOCH":"2026-03-09T17:45:41.156352","MEAN_MOTION":15.39989264,"ECCENTRICITY":0.00075308,"INCLINATION":97.5841,"RA_OF_ASC_NODE":353.0294,"ARG_OF_PERICENTER":339.4687,"MEAN_ANOMALY":20.6255,"EPHEMERIS_TYPE":0,"CLASSIFICATION_TYPE":"U","NORAD_CAT_ID":43880,"ELEMENT_SET_NO":999,"REV_AT_EPOCH":39544,"BSTAR":0.00083385764,"MEAN_MOTION_DOT":0.00033304,"MEAN_MOTION_DDOT":0},{"OBJECT_NAME":"STARLINK-30119","OBJECT_ID":"2023-079A","EPOCH":"2026-03-09T22:00:01.999584","MEAN_MOTION":15.19202714,"ECCENTRICITY":0.00015032,"INCLINATION":42.9996,"RA_OF_ASC_NODE":105.4949,"ARG_OF_PERICENTER":287.4614,"MEAN_ANOMALY":161.0846,"EPHEMERIS_TYPE":0,"CLASSIFICATION_TYPE":"U","NORAD_CAT_ID":56823,"ELEMENT_SET_NO":999,"REV_AT_EPOCH":578,"BSTAR":0.053394577,"MEAN_MOTION_DOT":0.01254132,"MEAN_MOTION_DDOT":0}]
